[{"OBJECT_NAME":"BANE","OBJECT_ID":"2023-185D","EPOCH":"2026-03-09T22:38:54.916224","MEAN_MOTION":15.6846319,"ECCENTRICITY":0.00050193,"INCLINATION":97.3445,"RA_OF_ASC_NODE":151.472,"ARG_OF_PERICENTER":176.385,"MEAN_ANOMALY":183.7448,"EPHEMERIS_TYPE":0,"CLASSIFICATION_TYPE":"U","NORAD_CAT_ID":58465,"ELEMENT_SET_NO":999,"REV_AT_EPOCH":12713,"BSTAR":0.00097597303,"MEAN_MOTION_DOT":0.00111172,"MEAN_MOTION_DDOT":0},{"OBJECT_NAME":"STARLINK-11253 [DTC]","OBJECT_ID":"2024-155M","EPOCH":"2026-03-09T23:29:14.488224","MEAN_MOTION":15.69689702,"ECCENTRICITY":5.41e-5,"INCLINATION":53.1594,"RA_OF_ASC_NODE":340.1242,"ARG_OF_PERICENTER":84.8596,"MEAN_ANOMALY":275.2484,"EPHEMERIS_TYPE":0,"CLASSIFICATION_TYPE":"U","NORAD_CAT_ID":60935,"ELEMENT_SET_NO":999,"REV_AT_EPOCH":8844,"BSTAR":3.165671e-5,"MEAN_MOTION_DOT":3.246e-5,"MEAN_MOTION_DDOT":0}]
